[{"OBJECT_NAME":"STARLINK-34832","OBJECT_ID":"2025-195T","EPOCH":"2026-03-09T19:59:33.447264","MEAN_MOTION":15.30188082,"ECCENTRICITY":9.429e-5,"INCLINATION":53.1585,"RA_OF_ASC_NODE":257.6585,"ARG_OF_PERICENTER":102.5697,"MEAN_ANOMALY":257.5409,"EPHEMERIS_TYPE":0,"CLASSIFICATION_TYPE":"U","NORAD_CAT_ID":65475,"ELEMENT_SET_NO":999,"REV_AT_EPOCH":2999,"BSTAR":0.00084603722,"MEAN_MOTION_DOT":0.00024772,"MEAN_MOTION_DDOT":0},{"OBJECT_NAME":"OBJECT P","OBJECT_ID":"2018-099P","EPOCH":"2026-03-09T16:35:55.790016","MEAN_MOTION":15.30834106,"ECCENTRICITY":0.00076856,"INCLINATION":97.4366,"RA_OF_ASC_NODE":131.9195,"ARG_OF_PERICENTER":276.7627,"MEAN_ANOMALY":83.2739,"EPHEMERIS_TYPE":0,"CLASSIFICATION_TYPE":"U","NORAD_CAT_ID":43771,"ELEMENT_SET_NO":999,"REV_AT_EPOCH":39830,"BSTAR":0.00063632878,"MEAN_MOTION_DOT":0.00018926,"MEAN_MOTION_DDOT":0}]
